COSMOS 1892             
1 18421U 87088A   20021.19769349  .00000399  00000-0  18485-4 0  9991
2 18421  82.4989  60.2653 0014173 215.8137 144.2148 15.17017865762294
SL-14 R/B               
1 18749U 88001B   20021.27133550  .00000055  00000-0  37883-5 0  9991
2 18749  82.5157 136.5185 0020168  68.5117 351.2923 14.83207574709904
COSMOS 1933             
1 18958U 88020A   20021.20012226 -.00000205  00000-0 -17066-4 0  9992
2 18958  82.5290 268.7412 0010118 301.4599  58.5637 15.03672831712809
SL-3 R/B                
1 19046U 88032B   20021.23344754  .00000231  00000-0  21480-4 0  9993
2 19046  97.4139  48.7626 0037685 351.6730   8.3865 15.02645827714701
SL-16 R/B               
1 19120U 88039B   20021.24242515  .00000085  00000-0  63192-4 0  9999
2 19120  71.0156 121.6988 0021912 180.6687 179.4412 14.19207031640625
COSMOS 1953             
1 19210U 88050A   20021.00736412  .00000432  00000-0  27708-4 0  9999
2 19210  82.5152 193.9072 0011496 266.5735  93.4177 15.05891209720453
SL-8 R/B                
1 19257U 88053B   20021.21488993  .00000033  00000-0  19864-4 0  9995
2 19257  74.0489 273.5499 0021511 288.1004 201.6889 14.37454838654703
COSMOS 1975             
1 19573U 88093A   20020.80831310  .00000112  00000-0  58632-5 0  9994
2 19573  82.5208 148.1548 0012948 314.7429  45.2743 15.04801095702295
SL-14 R/B               
1 19574U 88093B   20021.29757558  .00000053  00000-0  35582-5 0  9993
2 19574  82.5333 338.5775 0020392 227.8695 243.0278 14.83317695668907
SL-16 R/B               
1 19650U 88102B   20021.11312189  .00000110  00000-0  80086-4 0  9999
2 19650  70.9975 181.8350 0014594 188.9724 171.1141 14.15786822610162
INTERCOSMOS 24          
1 20261U 89080A   20021.42753247  .00000031  00000-0 -19205-6 0  9993
2 20261  82.6044 116.0970 1203694  69.3869 303.2006 12.56096763385002
SL-14 R/B               
1 20262U 89080C   20021.21359828  .00000033  00000-0  92102-5 0  9995
2 20262  82.5950 168.8857 1236275 255.1049  91.0196 12.48932043380483
DELTA 2 R/B(1)          
1 20303U 89085B   20020.92495345  .00000797  00000-0  27825-4 0  9994
2 20303  35.6227 223.3088 0096893 295.3993  63.6730 15.26876001645888
DELTA 1 R/B             
1 20323U 89089B   20021.02968671  .00000033  00000-0  17739-4 0  9995
2 20323  97.0674 190.7780 0071151 339.4192  20.4141 14.48330612571381
DELTA 2 R/B(1)          
1 20362U 89097B   20021.43267573  .00092671  50466-5  22809-3 0  9993
2 20362  35.6011  27.2575 0015972 258.5554 220.3453 15.94822218648657
ARIANE 40 R/B           
1 20443U 90005H   20021.17502592 -.00000028  00000-0  54743-5 0  9992
2 20443  98.5980  83.0900 0011360  68.0249 292.2144 14.38079780570805
DELTA 2 R/B(1)          
1 20453U 90008B   20021.40848174  .00000303  00000-0  20387-4 0  9992
2 20453  35.6256  49.0950 0281565 149.4457 212.2992 14.85252446589179
COSMOS 2058             
1 20465U 90010A   20021.22404324  .00000194  00000-0  14153-4 0  9995
2 20465  82.4878  55.9824 0014920 346.5237  13.5585 14.97956624606131
SL-14 R/B               
1 20466U 90010B   20021.48299849  .00000065  00000-0  52865-5 0  9998
2 20466  82.5018 205.2438 0022007 102.7630 257.6045 14.81373958617886
SL-14 R/B               
1 20511U 90018B   20021.19920619  .00000070  00000-0  61544-5 0  9991
2 20511  82.5244 151.2366 0016140 241.7660 185.8942 14.80030240591181
HST                     
1 20580U 90037B   20020.92534581  .00000369  00000-0  11455-4 0  9993
2 20580  28.4681 222.0002 0002570 294.6271 204.1873 15.09327849433507
SL-16 R/B               
1 20625U 90046B   20021.22689517  .00000136  00000-0  95579-4 0  9998
2 20625  70.9995 319.3204 0012315 111.0694 249.1747 14.14646368531659
COSMOS 2084             
1 20663U 90055A   20021.20728660 -.00000076  00000-0  10794-4 0  9991
2 20663  62.7955 303.1429 0042640 207.2950 152.5904 14.92048134601230
SL-6 R/B(2)             
1 20666U 90055D   20021.01680381 -.00000064  00000-0  11688-4 0  9990
2 20666  62.7847 220.5463 0027140 291.9405  67.8805 14.92301563603144
SL-8 R/B                
1 20775U 90078B   20021.26372739  .00001201  00000-0  58481-4 0  9993
2 20775  82.9282 348.7966 0573767 293.7646  60.4384 14.33996790484506
SL-8 R/B                
1 21088U 91006B   20021.17029156  .00000138  00000-0  12363-3 0  9991
2 21088  82.9411  35.4714 0022473 182.8154 246.9163 13.77136206455806
OKEAN-3                 
1 21397U 91039A   20021.25491214  .00000186  00000-0  15482-4 0  9996
2 21397  82.5234 317.5515 0016650 309.1632  50.8108 14.92881057530158
COSMOS 2151             
1 21422U 91042A   20021.18770467  .00000141  00000-0  11332-4 0  9992
2 21422  82.4991  64.1106 0014434  14.9293 345.2350 14.92101288528775
SL-14 R/B               
1 21423U 91042B   20020.83641991  .00000073  00000-0  66539-5 0  9997
2 21423  82.4951 155.8075 0018293  30.5750 329.6525 14.79780930542727
ERS-1                   
1 21574U 91050A   20020.83423162  .00000000  00000-0  14827-4 0  9993
2 21574  98.5789 334.3054 0033267  11.4260 348.7674 14.37726411493768
ARIANE 40 R/B           
1 21610U 91050F   20021.22050584 -.00000026  00000-0  57244-5 0  9992
2 21610  98.4846  91.8053 0002958   5.9472  61.0402 14.40892890496353
INTERCOSMOS 25          
1 21819U 91086A   20021.14256794  .00000756  00000-0  15359-3 0  9992
2 21819  82.5909 215.0348 1515995 228.0502 118.1312 12.05092768226426
SL-8 R/B                
1 21876U 92008B   20021.28941767  .00000003  00000-0 -12728-4 0  9990
2 21876  82.9283 132.5579 0033456 267.0814 146.8901 13.75643376401503
SL-8 R/B                
1 21938U 92020B   20021.11975428 -.00000072  00000-0 -90985-4 0  9994
2 21938  82.9292  16.6956 0030530  68.4405   2.1438 13.75277327393285
COSMOS 2219             
1 22219U 92076A   20021.39802739 -.00000283  00000-0 -12500-3 0  9992
2 22219  71.0574  16.9951 0017172  13.4003 346.7572 14.13629600402217
SL-16 R/B               
1 22220U 92076B   20021.00496942 -.00000142  00000-0 -47377-4 0  9992
2 22220  70.9979 224.0757 0015189 268.6148 243.7742 14.16448973404652
COSMOS 2221             
1 22236U 92080A   20021.27218250  .00000135  00000-0  11962-4 0  9998
2 22236  82.5065 243.6546 0018164  93.1664 267.1632 14.87889226447245
SL-16 R/B               
1 22285U 92093B   20021.27501091 -.00000201  00000-0 -79181-4 0  9997
2 22285  71.0212  23.3772 0002650 154.4951 205.6303 14.15036653396371
COSMOS 2228             
1 22286U 92094A   20021.51485941  .00000161  00000-0  14766-4 0  9992
2 22286  82.5191 199.4856 0020432 209.1448 150.8631 14.88104192463510
SL-16 R/B               
1 22566U 93016B   20021.01056626 -.00000133  00000-0 -43943-4 0  9997
2 22566  71.0051 237.3491 0008895 141.8556 218.3197 14.14960071385332
COSMOS 2242             
1 22626U 93024A   20021.27650731  .00000149  00000-0  13525-4 0  9996
2 22626  82.5200 227.7702 0018148 209.5253 150.4942 14.87961094446820
SL-16 R/B               
1 22803U 93059B   20021.49164725 -.00000107  00000-0 -29537-4 0  9994
2 22803  70.9900  51.0799 0016475  13.6280 346.5284 14.16814791362607
ARIANE 40 R/B           
1 22830U 93061H   20021.11709186 -.00000040  00000-0  21884-5 0  9995
2 22830  98.7880  68.7620 0011470  41.4796 318.7255 14.31443677373600
COSMOS 2278             
1 23087U 94023A   20020.88042011 -.00000016  00000-0  16251-4 0  9993
2 23087  71.0538 178.1967 0010121 220.8732 139.1632 14.13805690328199
SL-16 R/B               
1 23088U 94023B   20021.26780108 -.00000270  00000-0 -11530-3 0  9990
2 23088  71.0009  92.1529 0000807 126.0604 234.0593 14.14681095329359
SL-16 R/B               
1 23343U 94074B   20021.12756257  .00000004  00000-0  79342-5 0  9993
2 23343  98.0229  75.2550 0005531 267.7208 144.9544 14.76807486356520
SL-16 R/B               
1 23405U 94077B   20021.26662275 -.00000150  00000-0 -52562-4 0  9994
2 23405  70.9815  22.0389 0004456 296.3422  63.7243 14.15213209299392
ERS-2                   
1 23560U 95021A   20021.28053866  .00000603  00000-0  29458-4 0  9997
2 23560  98.5202 154.7540 0002711 337.1374  22.9738 15.22973758319563
ARIANE 40+ R/B          
1 23561U 95021B   20021.10291907  .00000015  00000-0  20121-4 0  9994
2 23561  98.7445  57.8653 0006430 342.1077  77.8139 14.37952339297477
SL-16 R/B               
1 23705U 95058B   20020.93524567 -.00000101  00000-0 -27555-4 0  9991
2 23705  71.0208 200.5629 0014820 289.9567  69.9959 14.15135838250960
SL-16 R/B               
1 24298U 96051B   20021.01050574  .00000171  00000-0  11875-3 0  9997
2 24298  70.8370 223.4662 0018961 219.4066 140.5676 14.12472900205398
ORBVIEW 2 (SEASTAR)     
1 24883U 97037A   20021.36153400  .00000008  00000-0  18708-4 0  9994
2 24883  98.5984 135.5308 0002658 159.2756 200.8536 14.33536863187755
SL-16 R/B               
1 25400U 98043G   20021.25561661 -.00000035  00000-0  35106-5 0  9991
2 25400  98.5951 320.0227 0010804  51.2079 309.0064 14.25447952119908
SL-16 R/B               
1 25407U 98045B   20020.96914509  .00000083  00000-0  66644-4 0  9992
2 25407  71.0100 209.6544 0008942 216.1496 143.9024 14.15798326110338
ISS (ZARYA)             
1 25544U 98067A   20021.68131944 -.00000455  00000-0  00000+0 0  9995
2 25544  51.6458 358.3116 0004839 151.5496 188.7728 15.49572642209145
SL-8 R/B                
1 25723U 99022C   20021.18730628  .00010194  00000-0  87678-4 0  9996
2 25723  48.4124  96.3613 0007711 328.0009  32.0473 15.69859682154659
CZ-4B R/B               
1 25732U 99025C   20021.11422519 -.00000018  00000-0  13507-4 0  9994
2 25732  98.9604  48.7012 0036342 273.2895 123.1956 14.17672041 70943
OKEAN-O                 
1 25860U 99039A   20021.04571560  .00000035  00000-0  12657-4 0  9997
2 25860  98.2224  37.3855 0001262  65.6516 294.4824 14.76642480103617
SL-16 R/B               
1 25861U 99039B   20020.99050038  .00000002  00000-0  78191-5 0  9993
2 25861  98.2029  20.2570 0014348 275.2482 140.8587 14.78560713105685
